{"type": "FeatureCollection", "features": [ {"type": "Feature", "properties": {"norad_id": 31985, "name": "FENGYUN 1C DEB", "group": "fengyun-1c-debris", "lat": -65.89381413396357, "lon": -85.6039070473975, "alt_km": 783.8726877627814, "timestamp": "2025-12-20T20:38:44.727623+00:00", "meta": {"OBJECT_NAME": "FENGYUN 1C DEB", "OBJECT_ID": "1999-025CPN", "EPOCH": "2025-12-13T23:34:50.116800", "MEAN_MOTION": 14.22977716, "ECCENTRICITY": 0.01504255, "INCLINATION": 98.2196, "RA_OF_ASC_NODE": 249.1254, "ARG_OF_PERICENTER": 243.0612, "MEAN_ANOMALY": 115.5134, "EPHEMERIS_TYPE": 0, "CLASSIFICATION_TYPE": "U", "NORAD_CAT_ID": 31985, "ELEMENT_SET_NO": 999, "REV_AT_EPOCH": 95628, "BSTAR": 0.00043991826, "MEAN_MOTION_DOT": 1.071e-05, "MEAN_MOTION_DDOT": 0}, "tle": {"line1": "1 31985U 99025CPN 25347.98252450  .00001071  00000+0  43992-3 0  9995", "line2": "2 31985  98.2196 249.1254 0150425 243.0612 115.5134 14.22977716956281"}}, "geometry": {"type": "Point", "coordinates": [-85.6039070473975, -65.89381413396357]}}, {"type": "Feature", "properties": {"norad_id": 31987, "name": "FENGYUN 1C DEB", "group": "fengyun-1c-debris", "lat": -4.62093766544895, "lon": -30.282905900508478, "alt_km": 772.9957982107853, "timestamp": "2025-12-20T20:38:44.727634+00:00", "meta": {"OBJECT_NAME": "FENGYUN 1C DEB", "OBJECT_ID": "1999-025CPQ", "EPOCH": "2025-12-19T21:39:45.434880", "MEAN_MOTION": 14.4495322, "ECCENTRICITY": 0.0051852, "INCLINATION": 99.0391, "RA_OF_ASC_NODE": 327.9616, "ARG_OF_PERICENTER": 136.176, "MEAN_ANOMALY": 281.0673, "EPHEMERIS_TYPE": 0, "CLASSIFICATION_TYPE": "U", "NORAD_CAT_ID": 31987, "ELEMENT_SET_NO": 999, "REV_AT_EPOCH": 96473, "BSTAR": 0.0006178, "MEAN_MOTION_DOT": 2.139e-05, "MEAN_MOTION_DDOT": 0}, "tle": {"line1": "1 31987U 99025CPQ 25353.90260920  .00002139  00000+0  61780-3 0  9998", "line2": "2 31987  99.0391 327.9616 0051852 136.1760 281.0673 14.44953220964730"}}, "geometry": {"type": "Point", "coordinates": [-30.282905900508478, -4.62093766544895]}}, {"type": "Feature", "properties": {"norad_id": 31989, "name": "FENGYUN 1C DEB", "group": "fengyun-1c-debris", "lat": -51.72841258669501, "lon": -135.89034371362084, "alt_km": 862.3772196762102, "timestamp": "2025-12-20T20:38:44.727644+00:00", "meta": {"OBJECT_NAME": "FENGYUN 1C DEB", "OBJECT_ID": "1999-025CPS", "EPOCH": "2025-12-15T16:11:35.170368", "MEAN_MOTION": 13.93591985, "ECCENTRICITY": 0.0115261, "INCLINATION": 99.2132, "RA_OF_ASC_NODE": 50.8156, "ARG_OF_PERICENTER": 291.0863, "MEAN_ANOMALY": 221.027, "EPHEMERIS_TYPE": 0, "CLASSIFICATION_TYPE": "U", "NORAD_CAT_ID": 31989, "ELEMENT_SET_NO": 999, "REV_AT_EPOCH": 93758, "BSTAR": 0.00049954957, "MEAN_MOTION_DOT": 6.47e-06, "MEAN_MOTION_DDOT": 0}, "tle": {"line1": "1 31989U 99025CPS 25349.67471262  .00000647  00000+0  49955-3 0  9994", "line2": "2 31989  99.2132  50.8156 0115261 291.0863 221.0270 13.93591985937587"}}, "geometry": {"type": "Point", "coordinates": [-135.89034371362084, -51.72841258669501]}}, {"type": "Feature", "properties": {"norad_id": 31990, "name": "FENGYUN 1C DEB", "group": "fengyun-1c-debris", "lat": -12.300952268952411, "lon": 18.81609175326138, "alt_km": 1243.0246613520194, "timestamp": "2025-12-20T20:38:44.727654+00:00", "meta": {"OBJECT_NAME": "FENGYUN 1C DEB", "OBJECT_ID": "1999-025CPT", "EPOCH": "2025-12-19T13:36:33.444000", "MEAN_MOTION": 13.57205754, "ECCENTRICITY": 0.026039, "INCLINATION": 99.1599, "RA_OF_ASC_NODE": 15.5944, "ARG_OF_PERICENTER": 167.0928, "MEAN_ANOMALY": 345.6406, "EPHEMERIS_TYPE": 0, "CLASSIFICATION_TYPE": "U", "NORAD_CAT_ID": 31990, "ELEMENT_SET_NO": 999, "REV_AT_EPOCH": 62864, "BSTAR": 0.00023615, "MEAN_MOTION_DOT": 1.71e-06, "MEAN_MOTION_DDOT": 0}, "tle": {"line1": "1 31990U 99025CPT 25353.56705375  .00000171  00000+0  23615-3 0  9991", "line2": "2 31990  99.1599  15.5944 0260390 167.0928 345.6406 13.57205754628640"}}, "geometry": {"type": "Point", "coordinates": [18.81609175326138, -12.300952268952411]}}, {"type": "Feature", "properties": {"norad_id": 31991, "name": "FENGYUN 1C DEB", "group": "fengyun-1c-debris", "lat": 48.25139636647069, "lon": 16.41606380737334, "alt_km": 1045.0115842277864, "timestamp": "2025-12-20T20:38:44.727664+00:00", "meta": {"OBJECT_NAME": "FENGYUN 1C DEB", "OBJECT_ID": "1999-025CPU", "EPOCH": "2025-12-10T18:22:22.024416", "MEAN_MOTION": 13.6127752, "ECCENTRICITY": 0.02446272, "INCLINATION": 100.4864, "RA_OF_ASC_NODE": 173.6062, "ARG_OF_PERICENTER": 58.2006, "MEAN_ANOMALY": 304.2706, "EPHEMERIS_TYPE": 0, "CLASSIFICATION_TYPE": "U", "NORAD_CAT_ID": 31991, "ELEMENT_SET_NO": 999, "REV_AT_EPOCH": 62060, "BSTAR": 0.00020963887, "MEAN_MOTION_DOT": 1.45e-06, "MEAN_MOTION_DDOT": 0}, "tle": {"line1": "1 31991U 99025CPU 25344.76553269  .00000145  00000+0  20964-3 0  9992", "line2": "2 31991 100.4864 173.6062 0244627  58.2006 304.2706 13.61277520620609"}}, "geometry": {"type": "Point", "coordinates": [16.41606380737334, 48.25139636647069]}}, {"type": "Feature", "properties": {"norad_id": 31992, "name": "FENGYUN 1C DEB", "group": "fengyun-1c-debris", "lat": -30.09895524648493, "lon": -40.84614169015634, "alt_km": 857.9258671925681, "timestamp": "2025-12-20T20:38:44.727674+00:00", "meta": {"OBJECT_NAME": "FENGYUN 1C DEB", "OBJECT_ID": "1999-025CPV", "EPOCH": "2025-12-12T04:04:23.293056", "MEAN_MOTION": 13.22988689, "ECCENTRICITY": 0.05424019, "INCLINATION": 99.1658, "RA_OF_ASC_NODE": 306.1111, "ARG_OF_PERICENTER": 30.97, "MEAN_ANOMALY": 332.2249, "EPHEMERIS_TYPE": 0, "CLASSIFICATION_TYPE": "U", "NORAD_CAT_ID": 31992, "ELEMENT_SET_NO": 999, "REV_AT_EPOCH": 53867, "BSTAR": 0.001808457, "MEAN_MOTION_DOT": 1.63e-05, "MEAN_MOTION_DDOT": 0}, "tle": {"line1": "1 31992U 99025CPV 25346.16971404  .00001630  00000+0  18085-2 0  9994", "line2": "2 31992  99.1658 306.1111 0542401  30.9700 332.2249 13.22988689538672"}}, "geometry": {"type": "Point", "coordinates": [-40.84614169015634, -30.09895524648493]}}, {"type": "Feature", "properties": {"norad_id": 31993, "name": "FENGYUN 1C DEB", "group": "fengyun-1c-debris", "lat": 37.86857169908294, "lon": 153.5439358813951, "alt_km": 864.8580555748931, "timestamp": "2025-12-20T20:38:44.727685+00:00", "meta": {"OBJECT_NAME": "FENGYUN 1C DEB", "OBJECT_ID": "1999-025CPW", "EPOCH": "2025-12-20T03:41:17.243520", "MEAN_MOTION": 13.27472101, "ECCENTRICITY": 0.04225125, "INCLINATION": 99.24, "RA_OF_ASC_NODE": 325.6399, "ARG_OF_PERICENTER": 117.1128, "MEAN_ANOMALY": 247.3743, "EPHEMERIS_TYPE": 0, "CLASSIFICATION_TYPE": "U", "NORAD_CAT_ID": 31993, "ELEMENT_SET_NO": 999, "REV_AT_EPOCH": 89041, "BSTAR": 0.0017481189, "MEAN_MOTION_DOT": 1.243e-05, "MEAN_MOTION_DDOT": 0}, "tle": {"line1": "1 31993U 99025CPW 25354.15367180  .00001243  00000+0  17481-2 0  9992", "line2": "2 31993  99.2400 325.6399 0422512 117.1128 247.3743 13.27472101890415"}}, "geometry": {"type": "Point", "coordinates": [153.5439358813951, 37.86857169908294]}}, {"type": "Feature", "properties": {"norad_id": 31994, "name": "FENGYUN 1C DEB", "group": "fengyun-1c-debris", "lat": 7.506731307714063, "lon": 169.58230438658077, "alt_km": 831.1763158669382, "timestamp": "2025-12-20T20:38:44.727695+00:00", "meta": {"OBJECT_NAME": "FENGYUN 1C DEB", "OBJECT_ID": "1999-025CPX", "EPOCH": "2025-12-18T05:54:00.814464", "MEAN_MOTION": 13.95758705, "ECCENTRICITY": 0.01625274, "INCLINATION": 98.539, "RA_OF_ASC_NODE": 346.0233, "ARG_OF_PERICENTER": 130.8306, "MEAN_ANOMALY": 230.708, "EPHEMERIS_TYPE": 0, "CLASSIFICATION_TYPE": "U", "NORAD_CAT_ID": 31994, "ELEMENT_SET_NO": 999, "REV_AT_EPOCH": 56873, "BSTAR": -7.0824309e-05, "MEAN_MOTION_DOT": -1.46e-06, "MEAN_MOTION_DDOT": 0}, "tle": {"line1": "1 31994U 99025CPX 25352.24584276 -.00000146  00000+0 -70824-4 0  9993", "line2": "2 31994  98.5390 346.0233 0162527 130.8306 230.7080 13.95758705568736"}}, "geometry": {"type": "Point", "coordinates": [169.58230438658077, 7.506731307714063]}}, {"type": "Feature", "properties": {"norad_id": 31997, "name": "FENGYUN 1C DEB", "group": "fengyun-1c-debris", "lat": -14.985672443383958, "lon": -142.80215820212456, "alt_km": 926.1210276556585, "timestamp": "2025-12-20T20:38:44.727706+00:00", "meta": {"OBJECT_NAME": "FENGYUN 1C DEB", "OBJECT_ID": "1999-025CQA", "EPOCH": "2025-12-15T21:25:47.322912", "MEAN_MOTION": 13.60688194, "ECCENTRICITY": 0.02902938, "INCLINATION": 102.5107, "RA_OF_ASC_NODE": 34.2632, "ARG_OF_PERICENTER": 266.7026, "MEAN_ANOMALY": 90.0859, "EPHEMERIS_TYPE": 0, "CLASSIFICATION_TYPE": "U", "NORAD_CAT_ID": 31997, "ELEMENT_SET_NO": 999, "REV_AT_EPOCH": 61726, "BSTAR": 0.0019849043, "MEAN_MOTION_DOT": 1.913e-05, "MEAN_MOTION_DDOT": 0}, "tle": {"line1": "1 31997U 99025CQA 25349.89290883  .00001913  00000+0  19849-2 0  9990", "line2": "2 31997 102.5107  34.2632 0290293 266.7026  90.0859 13.60688194617260"}}, "geometry": {"type": "Point", "coordinates": [-142.80215820212456, -14.985672443383958]}}, {"type": "Feature", "properties": {"norad_id": 32086, "name": "FENGYUN 1C DEB", "group": "fengyun-1c-debris", "lat": -37.62395709934596, "lon": 56.70273907395847, "alt_km": 1204.4223291197568, "timestamp": "2025-12-20T20:38:44.727716+00:00", "meta": {"OBJECT_NAME": "FENGYUN 1C DEB", "OBJECT_ID": "1999-025CQC", "EPOCH": "2025-12-19T22:02:08.299104", "MEAN_MOTION": 13.68925667, "ECCENTRICITY": 0.0299151, "INCLINATION": 99.2696, "RA_OF_ASC_NODE": 48.5644, "ARG_OF_PERICENTER": 116.9715, "MEAN_ANOMALY": 246.2316, "EPHEMERIS_TYPE": 0, "CLASSIFICATION_TYPE": "U", "NORAD_CAT_ID": 32086, "ELEMENT_SET_NO": 999, "REV_AT_EPOCH": 61879, "BSTAR": 0.0013486, "MEAN_MOTION_DOT": 1.552e-05, "MEAN_MOTION_DDOT": 0}, "tle": {"line1": "1 32086U 99025CQC 25353.91815161  .00001552  00000+0  13486-2 0  9990", "line2": "2 32086  99.2696  48.5644 0299151 116.9715 246.2316 13.68925667618798"}}, "geometry": {"type": "Point", "coordinates": [56.70273907395847, -37.62395709934596]}}]}